[{"OBJECT_NAME":"CONNECTA IOT-2","OBJECT_ID":"2024-149BG","EPOCH":"2026-03-09T19:22:15.516192","MEAN_MOTION":15.23021673,"ECCENTRICITY":0.00053374,"INCLINATION":97.3884,"RA_OF_ASC_NODE":148.507,"ARG_OF_PERICENTER":325.6165,"MEAN_ANOMALY":34.4726,"EPHEMERIS_TYPE":0,"CLASSIFICATION_TYPE":"U","NORAD_CAT_ID":60522,"ELEMENT_SET_NO":999,"REV_AT_EPOCH":8676,"BSTAR":0.00026280259,"MEAN_MOTION_DOT":6.116e-5,"MEAN_MOTION_DDOT":0},{"OBJECT_NAME":"ION SCV-017","OBJECT_ID":"2025-052W","EPOCH":"2026-03-09T17:11:44.577024","MEAN_MOTION":15.26881798,"ECCENTRICITY":0.0023746,"INCLINATION":97.4016,"RA_OF_ASC_NODE":324.7516,"ARG_OF_PERICENTER":44.9875,"MEAN_ANOMALY":315.3282,"EPHEMERIS_TYPE":0,"CLASSIFICATION_TYPE":"U","NORAD_CAT_ID":63230,"ELEMENT_SET_NO":999,"REV_AT_EPOCH":5485,"BSTAR":0.00024539061,"MEAN_MOTION_DOT":6.457e-5,"MEAN_MOTION_DDOT":0}]
